{
  "type": "FeatureCollection",
  "features": [
    {
      "type": "Feature",
      "properties": {
        "norad_id": 34554,
        "name": "COSMOS 2251 DEB",
        "group": "cosmos-2251-debris",
        "lat": 57.735518560459276,
        "lon": -29.384979830023113,
        "alt_km": 750.0533000443211,
        "timestamp": "2025-12-10T04:57:30.016431+00:00",
        "meta_object_name": "COSMOS 2251 DEB",
        "meta_object_id": "1993-036UQ",
        "meta_epoch": "2025-12-09T16:08:21.908256",
        "meta_mean_motion": 14.37929055,
        "meta_eccentricity": 0.0022854,
        "meta_inclination": 74.0384,
        "meta_ra_of_asc_node": 304.639,
        "meta_arg_of_pericenter": 7.6898,
        "meta_mean_anomaly": 169.941,
        "meta_ephemeris_type": 0,
        "meta_classification_type": "U",
        "meta_norad_cat_id": 34554,
        "meta_element_set_no": 999,
        "meta_rev_at_epoch": 87711,
        "meta_bstar": 0.00062978,
        "meta_mean_motion_dot": 1.882e-05,
        "meta_mean_motion_ddot": 0,
        "tle_line1": "1 34554U 93036UQ  25343.67247579  .00001882  00000+0  62978-3 0  9999",
        "tle_line2": "2 34554  74.0384 304.6390 0022854   7.6898 169.9410 14.37929055877112"
      },
      "geometry": {
        "type": "Point",
        "coordinates": [
          -29.384979830023113,
          57.735518560459276
        ]
      }
    },
    {
      "type": "Feature",
      "properties": {
        "norad_id": 34556,
        "name": "COSMOS 2251 DEB",
        "group": "cosmos-2251-debris",
        "lat": -35.72806076658208,
        "lon": -38.267716643314486,
        "alt_km": 637.5768015458507,
        "timestamp": "2025-12-10T04:57:30.016441+00:00",
        "meta_object_name": "COSMOS 2251 DEB",
        "meta_object_id": "1993-036US",
        "meta_epoch": "2025-12-09T16:40:05.568960",
        "meta_mean_motion": 14.77638766,
        "meta_eccentricity": 0.0008183,
        "meta_inclination": 74.0161,
        "meta_ra_of_asc_node": 130.8394,
        "meta_arg_of_pericenter": 190.7064,
        "meta_mean_anomaly": 183.6129,
        "meta_ephemeris_type": 0,
        "meta_classification_type": "U",
        "meta_norad_cat_id": 34556,
        "meta_element_set_no": 999,
        "meta_rev_at_epoch": 88284,
        "meta_bstar": 0.0037578,
        "meta_mean_motion_dot": 0.0002698,
        "meta_mean_motion_ddot": 0,
        "tle_line1": "1 34556U 93036US  25343.69450890  .00026980  00000+0  37578-2 0  9998",
        "tle_line2": "2 34556  74.0161 130.8394 0008183 190.7064 183.6129 14.77638766882844"
      },
      "geometry": {
        "type": "Point",
        "coordinates": [
          -38.267716643314486,
          -35.72806076658208
        ]
      }
    },
    {
      "type": "Feature",
      "properties": {
        "norad_id": 34560,
        "name": "COSMOS 2251 DEB",
        "group": "cosmos-2251-debris",
        "lat": 17.09518576094298,
        "lon": -37.991375653034844,
        "alt_km": 650.5361010151973,
        "timestamp": "2025-12-10T04:57:30.016451+00:00",
        "meta_object_name": "COSMOS 2251 DEB",
        "meta_object_id": "1993-036UW",
        "meta_epoch": "2025-12-09T10:24:17.600256",
        "meta_mean_motion": 14.7198998,
        "meta_eccentricity": 0.00149356,
        "meta_inclination": 74.0167,
        "meta_ra_of_asc_node": 148.5705,
        "meta_arg_of_pericenter": 229.8492,
        "meta_mean_anomaly": 157.4768,
        "meta_ephemeris_type": 0,
        "meta_classification_type": "U",
        "meta_norad_cat_id": 34560,
        "meta_element_set_no": 999,
        "meta_rev_at_epoch": 88203,
        "meta_bstar": 0.0031669846,
        "meta_mean_motion_dot": 0.00019939,
        "meta_mean_motion_ddot": 0,
        "tle_line1": "1 34560U 93036UW  25343.43353704  .00019939  00000+0  31670-2 0  9994",
        "tle_line2": "2 34560  74.0167 148.5705 0014935 229.8492 157.4768 14.71989980882038"
      },
      "geometry": {
        "type": "Point",
        "coordinates": [
          -37.991375653034844,
          17.09518576094298
        ]
      }
    },
    {
      "type": "Feature",
      "properties": {
        "norad_id": 34563,
        "name": "COSMOS 2251 DEB",
        "group": "cosmos-2251-debris",
        "lat": 18.85632688861441,
        "lon": 22.82818161268556,
        "alt_km": 744.7628191408558,
        "timestamp": "2025-12-10T04:57:30.016461+00:00",
        "meta_object_name": "COSMOS 2251 DEB",
        "meta_object_id": "1993-036UZ",
        "meta_epoch": "2025-12-09T15:05:20.310720",
        "meta_mean_motion": 14.46495796,
        "meta_eccentricity": 0.0013852,
        "meta_inclination": 74.0379,
        "meta_ra_of_asc_node": 209.5163,
        "meta_arg_of_pericenter": 303.5649,
        "meta_mean_anomaly": 88.7062,
        "meta_ephemeris_type": 0,
        "meta_classification_type": "U",
        "meta_norad_cat_id": 34563,
        "meta_element_set_no": 999,
        "meta_rev_at_epoch": 88152,
        "meta_bstar": 0.00073309,
        "meta_mean_motion_dot": 2.616e-05,
        "meta_mean_motion_ddot": 0,
        "tle_line1": "1 34563U 93036UZ  25343.62870730  .00002616  00000+0  73309-3 0  9991",
        "tle_line2": "2 34563  74.0379 209.5163 0013852 303.5649  88.7062 14.46495796881528"
      },
      "geometry": {
        "type": "Point",
        "coordinates": [
          22.82818161268556,
          18.85632688861441
        ]
      }
    },
    {
      "type": "Feature",
      "properties": {
        "norad_id": 34564,
        "name": "COSMOS 2251 DEB",
        "group": "cosmos-2251-debris",
        "lat": -7.587666094657123,
        "lon": -119.48728692274929,
        "alt_km": 746.3577796352383,
        "timestamp": "2025-12-10T04:57:30.016472+00:00",
        "meta_object_name": "COSMOS 2251 DEB",
        "meta_object_id": "1993-036VA",
        "meta_epoch": "2025-12-09T11:29:04.043328",
        "meta_mean_motion": 14.40682016,
        "meta_eccentricity": 0.00189016,
        "meta_inclination": 74.0327,
        "meta_ra_of_asc_node": 244.045,
        "meta_arg_of_pericenter": 348.5612,
        "meta_mean_anomaly": 189.0169,
        "meta_ephemeris_type": 0,
        "meta_classification_type": "U",
        "meta_norad_cat_id": 34564,
        "meta_element_set_no": 999,
        "meta_rev_at_epoch": 87959,
        "meta_bstar": 0.00046285436,
        "meta_mean_motion_dot": 1.455e-05,
        "meta_mean_motion_ddot": 0,
        "tle_line1": "1 34564U 93036VA  25343.47851902  .00001455  00000+0  46285-3 0  9998",
        "tle_line2": "2 34564  74.0327 244.0450 0018901 348.5612 189.0169 14.40682016879598"
      },
      "geometry": {
        "type": "Point",
        "coordinates": [
          -119.48728692274929,
          -7.587666094657123
        ]
      }
    },
    {
      "type": "Feature",
      "properties": {
        "norad_id": 34567,
        "name": "COSMOS 2251 DEB",
        "group": "cosmos-2251-debris",
        "lat": -9.251762361121571,
        "lon": -15.988439231496125,
        "alt_km": 778.5031150211416,
        "timestamp": "2025-12-10T04:57:30.016482+00:00",
        "meta_object_name": "COSMOS 2251 DEB",
        "meta_object_id": "1993-036VD",
        "meta_epoch": "2025-12-09T05:01:15.178080",
        "meta_mean_motion": 14.2401118,
        "meta_eccentricity": 0.0074562,
        "meta_inclination": 74.0396,
        "meta_ra_of_asc_node": 163.1343,
        "meta_arg_of_pericenter": 238.1727,
        "meta_mean_anomaly": 240.9079,
        "meta_ephemeris_type": 0,
        "meta_classification_type": "U",
        "meta_norad_cat_id": 34567,
        "meta_element_set_no": 999,
        "meta_rev_at_epoch": 87074,
        "meta_bstar": 0.00037325,
        "meta_mean_motion_dot": 8.56e-06,
        "meta_mean_motion_ddot": 0,
        "tle_line1": "1 34567U 93036VD  25343.20920345  .00000856  00000+0  37325-3 0  9999",
        "tle_line2": "2 34567  74.0396 163.1343 0074562 238.1727 240.9079 14.24011180870740"
      },
      "geometry": {
        "type": "Point",
        "coordinates": [
          -15.988439231496125,
          -9.251762361121571
        ]
      }
    },
    {
      "type": "Feature",
      "properties": {
        "norad_id": 34569,
        "name": "COSMOS 2251 DEB",
        "group": "cosmos-2251-debris",
        "lat": -11.205634451458563,
        "lon": -160.54358101405904,
        "alt_km": 730.166327302376,
        "timestamp": "2025-12-10T04:57:30.016492+00:00",
        "meta_object_name": "COSMOS 2251 DEB",
        "meta_object_id": "1993-036VF",
        "meta_epoch": "2025-12-09T13:57:56.520288",
        "meta_mean_motion": 14.24740755,
        "meta_eccentricity": 0.0157129,
        "meta_inclination": 73.9903,
        "meta_ra_of_asc_node": 203.8463,
        "meta_arg_of_pericenter": 32.9514,
        "meta_mean_anomaly": 353.8964,
        "meta_ephemeris_type": 0,
        "meta_classification_type": "U",
        "meta_norad_cat_id": 34569,
        "meta_element_set_no": 999,
        "meta_rev_at_epoch": 86923,
        "meta_bstar": 0.0009201,
        "meta_mean_motion_dot": 2.411e-05,
        "meta_mean_motion_ddot": 0,
        "tle_line1": "1 34569U 93036VF  25343.58190417  .00002411  00000+0  92010-3 0  9992",
        "tle_line2": "2 34569  73.9903 203.8463 0157129  32.9514 353.8964 14.24740755869230"
      },
      "geometry": {
        "type": "Point",
        "coordinates": [
          -160.54358101405904,
          -11.205634451458563
        ]
      }
    }
  ]
}